{
    "links": {
        "self": "http://www.neowsapp.com/rest/v1/neo/3545510?api_key=iIulBulltgU6a56xZRHN4H3l9WmuAYTsLGpBGhQ2"
    },
    "id": "3545510",
    "neo_reference_id": "3545510",
    "name": "(2010 RY11)",
    "designation": "2010 RY11",
    "nasa_jpl_url": "http://ssd.jpl.nasa.gov/sbdb.cgi?sstr=3545510",
    "absolute_magnitude_h": 26.0,
    "estimated_diameter": {
        "kilometers": {
            "estimated_diameter_min": 0.0167708462,
            "estimated_diameter_max": 0.0375007522
        },
        "meters": {
            "estimated_diameter_min": 16.7708462163,
            "estimated_diameter_max": 37.5007521798
        },
        "miles": {
            "estimated_diameter_min": 0.0104209175,
            "estimated_diameter_max": 0.0233018799
        },
        "feet": {
            "estimated_diameter_min": 55.0224631002,
            "estimated_diameter_max": 123.0339677816
        }
    },
    "is_potentially_hazardous_asteroid": false,
    "close_approach_data": [
        {
            "close_approach_date": "2010-03-08",
            "close_approach_date_full": "2010-Mar-08 06:42",
            "epoch_date_close_approach": 1268030520000,
            "relative_velocity": {
                "kilometers_per_second": "7.6156580526",
                "kilometers_per_hour": "27416.3689895287",
                "miles_per_hour": "17035.4654979658"
            },
            "miss_distance": {
                "astronomical": "0.406867964",
                "lunar": "158.271637996",
                "kilometers": "60866580.78563668",
                "miles": "37820739.529198984"
            },
            "orbiting_body": "Earth"
        },
        {
            "close_approach_date": "2010-08-21",
            "close_approach_date_full": "2010-Aug-21 22:42",
            "epoch_date_close_approach": 1282430520000,
            "relative_velocity": {
                "kilometers_per_second": "9.3344853038",
                "kilometers_per_hour": "33604.1470935005",
                "miles_per_hour": "20880.3101759587"
            },
            "miss_distance": {
                "astronomical": "0.0232419623",
                "lunar": "9.0411233347",
                "kilometers": "3476948.054700301",
                "miles": "2160475.3386181138"
            },
            "orbiting_body": "Earth"
        }
    ],
    "orbital_data": {
        "orbit_id": "6",
        "orbit_determination_date": "2017-04-06 08:56:53",
        "first_observation_date": "2010-09-03",
        "last_observation_date": "2010-09-04",
        "data_arc_in_days": 1,
        "observations_used": 24,
        "orbit_uncertainty": "8",
        "minimum_orbit_intersection": ".0228772",
        "jupiter_tisserand_invariant": "4.916",
        "epoch_osculation": "2455443.5",
        "eccentricity": ".3074549851191054",
        "semi_major_axis": "1.309047643164792",
        "inclination": "9.695892389936763",
        "ascending_node_longitude": "335.2063594176189",
        "orbital_period": "547.0557743804262",
        "perihelion_distance": ".9065744195153611",
        "perihelion_argument": "294.4187770110573",
        "aphelion_distance": "1.711520866814223",
        "perihelion_time": "2455381.134519517301",
        "mean_anomaly": "41.04073848630774",
        "mean_motion": ".6580681840123556",
        "equinox": "J2000",
        "orbit_class": {
            "orbit_class_type": "APO",
            "orbit_class_description": "Near-Earth asteroid orbits which cross the Earth’s orbit similar to that of 1862 Apollo",
            "orbit_class_range": "a (semi-major axis) > 1.0 AU; q (perihelion) < 1.017 AU"
        }
    },
    "is_sentry_object": false
}